IRIDIUM 159             
1 43578U 18061K   25018.24480835  .00000535  00000+0  18386-3 0  9994
2 43578  86.3952 271.8730 0002108  78.0073 282.1358 14.34221628339575
IRIDIUM 180             
1 43922U 19002A   25018.59314956  .00000168  00000+0  52764-4 0  9992
2 43922  86.3971 208.6136 0001905  92.0986 268.0428 14.34218067315231
IRIDIUM 176             
1 43923U 19002B   25018.57553628  .00000677  00000+0  10349-3 0  9999
2 43923  86.6099 208.6256 0001711  57.1128 303.0253 14.72242442323538
IRIDIUM 168             
1 43924U 19002C   25018.58679247  .00000174  00000+0  55166-4 0  9996
2 43924  86.3971 208.6789 0001986  85.9398 274.2025 14.34218385315217
IRIDIUM 173             
1 43925U 19002D   25018.57410752  .00000065  00000+0  16089-4 0  9990
2 43925  86.3968 208.5943 0001923  92.7755 267.3661 14.34218833315193
IRIDIUM 169             
1 43926U 19002E   25018.67867101  .00000603  00000+0  19054-3 0  9998
2 43926  86.4202 240.1560 0001328 143.7683 216.3606 14.38614148316253
IRIDIUM 172             
1 43927U 19002F   25018.56776347 -.00000020  00000+0 -14321-4 0  9996
2 43927  86.3975 208.6034 0001860  87.1906 272.9503 14.34217339315200
IRIDIUM 175             
1 43928U 19002G   25018.50220643  .00002209  00000+0  34632-3 0  9999
2 43928  86.1538 169.6959 0002716 118.1917 241.9574 14.72248360323511
